     3.04           N: GNSS NAV DATA    E: GALILEO          RINEX VERSION / TYPE
sbf2rin-16.2.0                          20260417 131309 UTC PGM / RUN BY / DATE 
GAL    7.1250E+01  1.6016E-01  1.4709E-02  0.0000E+00       IONOSPHERIC CORR    
GAGP  6.6647771746E-09 1.332267630E-14 345600 2414          TIME SYSTEM CORR    
GAUT  0.0000000000E+00 0.000000000E+00 345600 2414          TIME SYSTEM CORR    
    18                                                      LEAP SECONDS        
                                                            END OF HEADER       
E30 2026 04 16 10 50 00-9.463169262744E-04-4.011724286102E-11 0.000000000000E+00
     6.000000000000E+00 1.954375000000E+02 3.194775932384E-09 7.029809093137E-01
     9.108334779739E-06 4.044702509418E-04 1.220963895321E-05 5.440624250412E+03
     3.846000000000E+05 1.490116119385E-08 4.041127729419E-01-3.725290298462E-09
     9.598527491712E-01 7.618750000000E+01 1.138463540799E+00-5.649878197248E-09
     5.175215568501E-10 2.580000000000E+02 2.414000000000E+03
     3.120000000000E+00 0.000000000000E+00-6.984919309616E-10 0.000000000000E+00
     3.853400000000E+05
E02 2026 04 16 10 50 00 3.307173028588E-05 2.785327524180E-12 0.000000000000E+00
     6.000000000000E+00 1.974375000000E+02 3.088342927594E-09 1.883497118712E+00
     9.158626198769E-06 3.422801382840E-04 1.147016882896E-05 5.440625095367E+03
     3.846000000000E+05 3.725290298462E-08 4.055752287391E-01 2.235174179077E-08
     9.624710960416E-01 9.584375000000E+01 7.530511472601E-01-5.619876947575E-09
     4.928776731906E-10 2.580000000000E+02 2.414000000000E+03
    -1.000000000000E+00 0.000000000000E+00-3.725290298462E-09 0.000000000000E+00
     3.853400000000E+05
E15 2026 04 16 10 50 00-2.510051126592E-04-2.984279490192E-12 0.000000000000E+00
     6.000000000000E+00-1.945000000000E+02 2.485460672271E-09 2.537792456671E-02
    -9.100884199142E-06 3.181903157383E-04 1.171045005322E-05 5.440609523773E+03
     3.846000000000E+05 6.519258022308E-08 2.501679631924E+00-1.676380634308E-08
     9.981369554278E-01 1.014062500000E+02-2.664110853882E-01-5.407010937995E-09
    -6.350264514006E-10 5.170000000000E+02 2.414000000000E+03
     3.120000000000E+00 0.000000000000E+00 3.026798367500E-09 3.026798367500E-09
     3.855840000000E+05
E15 2026 04 16 10 50 00-2.510061603971E-04-2.984279490192E-12 0.000000000000E+00
     6.000000000000E+00-1.945000000000E+02 2.485460672271E-09 2.537792456671E-02
    -9.100884199142E-06 3.181903157383E-04 1.171045005322E-05 5.440609523773E+03
     3.846000000000E+05 6.519258022308E-08 2.501679631924E+00-1.676380634308E-08
     9.981369554278E-01 1.014062500000E+02-2.664110853882E-01-5.407010937995E-09
    -6.350264514006E-10 2.580000000000E+02 2.414000000000E+03
     3.120000000000E+00 0.000000000000E+00 3.026798367500E-09 0.000000000000E+00
     3.856200000000E+05
